#aV2013 12 30  0  0  0.00000000     288 DD+AD WGS84 FIT  NGA
## 1773  86400.00000000   300.00000000 56656 0.0000000000000
+   31     1  2  3  4  5  6  7  8  9 10 11 12 13 14 15 16 17
+         18 19 20 21 22 23 24 25 26 27 28 29 31 32  0  0  0
+          0  0  0  0  0  0  0  0  0  0  0  0  0  0  0  0  0
+          0  0  0  0  0  0  0  0  0  0  0  0  0  0  0  0  0
+          0  0  0  0  0  0  0  0  0  0  0  0  0  0  0  0  0
++         2  2  2  2  2  2  2  2  2  2  2  2  2  2  2  2  2
++         2  2  2  2  2  2  2  2  2  2  2  2  2  2  0  0  0
++         0  0  0  0  0  0  0  0  0  0  0  0  0  0  0  0  0
++         0  0  0  0  0  0  0  0  0  0  0  0  0  0  0  0  0
++         0  0  0  0  0  0  0  0  0  0  0  0  0  0  0  0  0
%c cc cc ccc ccc cccc cccc cccc cccc ccccc ccccc ccccc ccccc
%c cc cc ccc ccc cccc cccc cccc cccc ccccc ccccc ccccc ccccc
%f  0.0000000  0.000000000  0.00000000000  0.000000000000000
%f  0.0000000  0.000000000  0.00000000000  0.000000000000000
%i    0    0    0    0      0      0      0      0         0
%i    0    0    0    0      0      0      0      0         0
/*      NGA, ST. LOUIS,MO.                                  
/*   EPHEMERIS COMPUTED FROM  1 DAYS OF DATA                
/*   EPOCHA SMOOTHER                                       
/* CCCCCCCCCCCCCCCCCCCCCCCCCCCCCCCCCCCCCCCCCCCCCCCCCCCCCCCCC
*  2013 12 30 10 10  0.00000000
P  1  14170.770791  -6265.698819  21526.469162     97.040271                    
V  1   5326.543978  26913.412402   4432.518687      0.026637                    
P  2 -14146.724014 -17726.615347 -13975.967793    469.840637                    
V  2  -1341.440888 -18126.980233  23422.899581      0.021922                    
P  3  24968.370662   8364.229300  -4654.823805    305.821463                    
V  3  -5775.171853   2210.515391 -30377.460674      0.048987                    
P  4  -6466.328284 -25558.152626  -2100.113938      4.592262                    
V  4   3223.907007  -2990.182043  31247.482017      0.002448                    
P  5 -16256.611689  -5365.867767 -20387.071251   -393.948524                    
V  5  18935.487066 -17553.252411 -10342.246539      0.011366                    
P  6  20909.734146  13364.060352  -9944.168898    214.822666                    
V  6 -12861.727021   -822.345628 -27607.232383      0.159332                    
P  7   7066.607947 -20469.471087 -15088.765106    297.181996                    
V  7   5029.516157  18820.658245 -23382.241689      0.041861                    
P  8   1369.771241 -25749.947338  -4674.746554     10.926917                    
V  8   2523.474911   6052.317675 -32216.004597      0.004031                    
P  9  -1027.262549 -25980.620935  -5536.428927    294.263745                    
V  9   3216.670750   5879.670463 -31315.937177      0.027826                    
P 10    276.531876 -18433.453826 -19297.165199   -107.973311                    
V 10  19581.951881 -14006.543787  14324.116692     -0.015353                    
P 11  18160.615194   1446.541685  18909.773985   -451.197537                    
V 11  10311.687757  23157.506515 -11161.770104     -0.033020                    
P 12 -22593.053895   9567.507067   9848.211104    177.123859                    
V 12   8664.896707  -9373.095854  29046.874433      0.023201                    
P 13  13287.761279  -9394.096619 -21153.595224     44.928100                    
V 13  23640.481881  11911.115605   9482.902568     -0.037765                    
P 14   5250.777154  17120.514686  19875.871209    206.245934                    
V 14 -22986.695773  -9073.339100  13902.232615     -0.011910                    
P 15 -25595.178749  -2664.934598   7107.543949   -154.934510                    
V 15  -7679.797660  -5682.244897 -29321.719195     -0.020116                    
P 16  15873.202483   5168.716371 -20775.377183   -237.148712                    
V 16 -20479.373019  16267.499873 -11282.515435      0.013026                    
P 17  -5935.730754 -17075.018375  19780.747913    -54.670006                    
V 17  23088.241304   8253.850087  13991.204741     -0.033358                    
P 18 -14697.446400  20576.673721   7967.138108    293.268196                    
V 18  -9845.626603   3436.114500 -28908.579288      0.021176                    
P 19  25060.634566   6370.594302   6870.012823   -428.839813                    
V 19   7026.597157   5712.306369 -29967.159656     -0.025591                    
P 20  21692.813172 -13377.039282   7143.023040    148.781252                    
V 20  -4169.236366   9211.547813  29215.799619      0.031206                    
P 21  -5474.563714  22042.798600 -12756.386490   -335.402151                    
V 21  -6675.075744 -16479.853629 -24958.875656     -0.019336                    
P 22  -4307.872363  20306.171109  16683.473244    203.773351                    
V 22 -17567.278276  11769.121553 -19238.323420      0.021006                    
P 23  22318.725415  -2661.567786 -14362.802335     17.061483                    
V 23  16438.645386   8205.816069  23469.598793     -0.033050                    
P 24 -15324.192019   1034.814589  21666.150482    -20.677656                    
V 24  -5095.871874 -27057.303707  -2235.247443     -0.006937                    
P 25 -19126.968278  18235.911626  -2000.821552      5.871828                    
V 25  -3479.694170   -247.163362  32005.925792      0.025093                    
P 26 -22543.645355 -13848.918973  -4453.860060    208.024058                    
V 26   5151.352511    277.197110 -31255.261804     -0.104833                    
P 27  22495.894910  12625.987292  -6383.018997    -11.483268                    
V 27  -8506.222344   -204.817648 -30380.955671     -0.024078                    
P 28   8282.236567 -19715.879330  16252.478831    320.636450                    
V 28  16408.295464 -10687.714650 -22313.359968      0.030675                    
P 29 -16355.044836   7685.236755 -19411.007184    499.351735                    
V 29 -22389.978639 -10564.581346  14687.728546      0.030075                    
P 31   7060.961863  24974.686869  -4651.724324    331.767608                    
V 31  -1475.317947   6464.271071  31628.880272      0.005031                    
P 32  21226.087275  -1367.881130  15632.457436   -509.187180                    
V 32 -14766.643372  13682.302782  21893.171952      0.054568                    
EOF
